STARLINK-33565          
1 62288U 24237X   26068.43525124  .00030162  00000+0  11002-2 0  9999
2 62288  43.0014 206.4987 0001019 196.7330 163.3488 15.27606709 71280
2025-313BD              
1 67299U 25313BD  26068.62968741  .00081010  00000+0  27634-2 0  9995
2 67299  97.3970 145.2850 0007287 333.4514  26.6352 15.30002360 10838
